     2.11           N: GPS NAV DATA                         RINEX VERSION / TYPE
teqc  2018Dec12     gpsops              20220205 01:04:09UTCPGM / RUN BY / DATE
Linux 2.6.32-573.12.1.x86_64|x86_64|gcc -static|Linux 64|=+ COMMENT
CHPI                                    MARKER NAME         COMMENT
41609M003                               MARKER NUMBER       COMMENT
4164613.9484 -4162456.9866 -2445028.7316                    COMMENT
                                                            COMMENT
This data is provided as a public service by NASA/JPL.      COMMENT
No warranty is expressed or implied regarding suitability   COMMENT
for use.  For further information, contact:                 COMMENT
Dave Stowers, NASA/JPL m/s 238-600                          COMMENT
4800 Oak Grove Drive, Pasadena CA 91109 USA                 COMMENT
                                                            END OF HEADER
 5 22  2  4  2  0  0.0-7.020588964224D-05-1.364242052659D-12 0.000000000000D+00
    8.200000000000D+01-6.409375000000D+01 4.832344143673D-09-1.989100522775D+00
   -3.263354301453D-06 5.866172607057D-03 2.888962626457D-06 5.153658208847D+03
    4.392000000000D+05 4.842877388000D-08-6.670336605608D-01-2.793967723846D-08
    9.594725396882D-01 3.224687500000D+02 1.011788285203D+00-8.458209461232D-09
   -2.550106222160D-10 1.000000000000D+00 2.195000000000D+03 0.000000000000D+00
    2.000000000000D+00 0.000000000000D+00-1.117587089539D-08 8.200000000000D+01
    4.360080000000D+05 4.000000000000D+00
17 22  2  4  2  0  0.0 5.704099312425D-04 5.115907697473D-12 0.000000000000D+00
    4.000000000000D+01 4.034375000000D+01 3.900876772890D-09-2.455531696786D+00
    2.132728695869D-06 1.365298975725D-02 1.213513314724D-05 5.153754833221D+03
    4.392000000000D+05 1.545995473862D-07-2.660219030972D+00 1.508742570877D-07
    9.802567215471D-01 1.535312500000D+02-1.501375252180D+00-7.409237195898D-09
   -1.414344627416D-10 1.000000000000D+00 2.195000000000D+03 0.000000000000D+00
    2.000000000000D+00 0.000000000000D+00-1.117587089539D-08 4.000000000000D+01
    4.365360000000D+05 4.000000000000D+00
13 22  2  4  2  0  0.0 2.559889107943D-04 6.139089236967D-12 0.000000000000D+00
    2.000000000000D+00-4.740625000000D+01 3.865160999470D-09-2.950186463611D+00
   -2.445653080940D-06 5.796681623906D-03 1.323036849499D-05 5.153685358047D+03
    4.392000000000D+05 2.235174179077D-08 5.538833005827D-01 3.725290298462D-09
    9.688734633887D-01 1.271875000000D+02 9.645884446719D-01-7.614245735326D-09
    8.750364487804D-11 1.000000000000D+00 2.195000000000D+03 0.000000000000D+00
    2.000000000000D+00 0.000000000000D+00-1.117587089539D-08 2.000000000000D+00
    4.385580000000D+05 4.000000000000D+00
14 22  2  4  4  0  0.0-7.956987246871D-05-4.774847184308D-12 0.000000000000D+00
    2.260000000000D+02-2.868750000000D+01 5.062353724495D-09 1.428838660911D+00
   -1.553446054459D-06 1.388643053360D-03 5.338340997696D-06 5.153643482208D+03
    4.464000000000D+05 3.725290298462D-08 2.554890629176D+00-2.048909664154D-08
    9.538219352207D-01 2.728750000000D+02 3.024521241598D+00-8.438208628117D-09
   -2.817974522807D-10 1.000000000000D+00 2.195000000000D+03 0.000000000000D+00
    2.000000000000D+00 0.000000000000D+00-7.450580596924D-09 9.940000000000D+02
    4.392180000000D+05 4.000000000000D+00
 7 22  2  4  4  0  0.0 3.075986169279D-04 3.069544618484D-12 0.000000000000D+00
    2.300000000000D+01 4.890625000000D+01 4.806271629077D-09 2.028152497698D+00
    2.399086952209D-06 1.549794664606D-02 8.411705493927D-06 5.153697042465D+03
    4.464000000000D+05-3.185123205185D-07 1.473079560911D+00-2.942979335785D-07
    9.506237871022D-01 2.132500000000D+02-2.293293477610D+00-8.177126324419D-09
    5.271648156734D-10 1.000000000000D+00 2.195000000000D+03 0.000000000000D+00
    2.000000000000D+00 0.000000000000D+00-1.117587089539D-08 2.300000000000D+01
    4.392180000000D+05 4.000000000000D+00
30 22  2  4  4  0  0.0-5.111829377711D-04-2.387423592154D-12 0.000000000000D+00
    4.700000000000D+01 5.300000000000D+01 5.188787562401D-09 2.057755816829D+00
    2.779066562653D-06 5.477552651428D-03 8.000060915947D-06 5.153584646225D+03
    4.464000000000D+05-1.508742570877D-07 1.486392146153D+00 2.793967723846D-08
    9.357863482176D-01 2.132187500000D+02-2.748798994237D+00-8.432136946635D-09
    4.571618997710D-10 1.000000000000D+00 2.195000000000D+03 0.000000000000D+00
    2.000000000000D+00 0.000000000000D+00 3.725290298462D-09 4.700000000000D+01
    4.392180000000D+05 4.000000000000D+00
 9 22  2  4  4  0  0.0-3.555826842785D-04 1.477928890381D-12 0.000000000000D+00
    3.700000000000D+01-7.271875000000D+01 4.398040338891D-09-9.654604740469D-01
   -3.850087523460D-06 2.289783093147D-03 1.144595444202D-05 5.153636344910D+03
    4.464000000000D+05-2.793967723846D-08 4.012206775260D-01 4.656612873077D-08
    9.544771952464D-01 1.562500000000D+02 1.871339614086D+00-7.996404510916D-09
   -8.000333245992D-11 1.000000000000D+00 2.195000000000D+03 0.000000000000D+00
    2.000000000000D+00 0.000000000000D+00 1.396983861923D-09 3.700000000000D+01
    4.392180000000D+05 4.000000000000D+00
28 22  2  4  4  0  0.0 4.079695791006D-04-8.185452315956D-12 0.000000000000D+00
    1.250000000000D+02-2.865625000000D+01 4.728054085288D-09-9.233901787473D-01
   -1.469627022743D-06 1.687421614770D-02 6.375834345818D-06 5.153695125580D+03
    4.464000000000D+05-2.831220626831D-07 2.608088354834D+00-2.793967723846D-08
    9.695469294299D-01 2.673750000000D+02-1.289772025439D+00-8.489282184107D-09
   -2.092944322389D-10 1.000000000000D+00 2.195000000000D+03 0.000000000000D+00
    4.000000000000D+00 6.300000000000D+01-1.117587089539D-08 1.250000000000D+02
    4.392180000000D+05 4.000000000000D+00
20 22  2  4  4  0  0.0 5.168621428311D-04-2.273736754432D-13 0.000000000000D+00
    4.900000000000D+01-4.706250000000D+01 5.337722337560D-09-2.557947038087D+00
   -2.419576048851D-06 5.219977465458D-03 1.937150955200D-06 5.153738195419D+03
    4.464000000000D+05-1.117587089539D-07-7.809254610686D-01-9.126961231232D-08
    9.415953633064D-01 3.287187500000D+02 3.123338222819D+00-8.717148818524D-09
   -2.192948487964D-10 1.000000000000D+00 2.195000000000D+03 0.000000000000D+00
    2.000000000000D+00 0.000000000000D+00-8.381903171539D-09 4.900000000000D+01
    4.392180000000D+05 4.000000000000D+00
 5 22  2  4  4  0  0.0-7.021520286798D-05-1.364242052659D-12 0.000000000000D+00
    8.300000000000D+01-6.146875000000D+01 4.926276627767D-09-9.390016783090D-01
   -3.146007657051D-06 5.866043269634D-03 3.006309270859D-06 5.153657150269D+03
    4.464000000000D+05 5.587935447693D-09-6.670946086538D-01 8.940696716309D-08
    9.594700746713D-01 3.191250000000D+02 1.011882403501D+00-8.573571409377D-09
   -2.960837616486D-10 1.000000000000D+00 2.195000000000D+03 0.000000000000D+00
    2.000000000000D+00 0.000000000000D+00-1.117587089539D-08 8.300000000000D+01
    4.392180000000D+05 4.000000000000D+00
 8 22  2  4  4  0  0.0-5.477247759700D-05-1.477928890381D-12 0.000000000000D+00
    2.300000000000D+01-1.500000000000D+00 4.278392497935D-09-1.310657973731D+00
   -2.998858690262D-07 7.244283333421D-03 1.162663102150D-05 5.153716413498D+03
    4.464000000000D+05 1.303851604462D-08-2.741957717819D+00-1.825392246246D-07
    9.651703422817D-01 1.555312500000D+02 9.438751104727D-02-7.863898991529D-09
   -2.060800126311D-10 1.000000000000D+00 2.195000000000D+03 0.000000000000D+00
    2.000000000000D+00 0.000000000000D+00 5.122274160385D-09 2.300000000000D+01
    4.392180000000D+05 4.000000000000D+00
 4 22  2  4  4  0  0.0-1.915474422276D-04 2.046363078989D-12 0.000000000000D+00
    1.870000000000D+02-7.268750000000D+01 4.174102439550D-09-1.791446462764D+00
   -3.866851329803D-06 1.692673191428D-03 1.157633960247D-05 5.153662212372D+03
    4.464000000000D+05-9.872019290924D-08 4.540664236320D-01 7.450580596924D-09
    9.614671992309D-01 1.575625000000D+02-3.078218982416D+00-7.790324498285D-09
   -5.071639825584D-11 1.000000000000D+00 2.195000000000D+03 0.000000000000D+00
    2.000000000000D+00 0.000000000000D+00-4.190951585770D-09 4.430000000000D+02
    4.392180000000D+05 4.000000000000D+00
13 22  2  4  4  0  0.0 2.560331486166D-04 6.139089236967D-12 0.000000000000D+00
    1.700000000000D+01-4.043750000000D+01 3.981594420818D-09-1.900344193032D+00
   -2.134591341019D-06 5.798577796668D-03 1.238659024239D-05 5.153680345535D+03
    4.464000000000D+05 9.685754776001D-08 5.538288961223D-01-8.568167686462D-08
    9.688737852307D-01 1.455312500000D+02 9.649166298621D-01-7.637818145783D-09
   -1.071473202588D-12 1.000000000000D+00 2.195000000000D+03 0.000000000000D+00
    2.000000000000D+00 0.000000000000D+00-1.117587089539D-08 1.700000000000D+01
    4.392180000000D+05 4.000000000000D+00
17 22  2  4  4  0  0.0 5.704471841455D-04 5.115907697473D-12 0.000000000000D+00
    4.500000000000D+01 2.756250000000D+01 3.918377501865D-09-1.405246293692D+00
    1.663342118263D-06 1.365189731587D-02 1.184456050396D-05 5.153759384155D+03
    4.464000000000D+05-1.695007085800D-07-2.660272845876D+00 3.539025783539D-07
    9.802540634250D-01 1.659687500000D+02-1.501535767940D+00-7.739250942295D-09
   -1.925080187317D-10 1.000000000000D+00 2.195000000000D+03 0.000000000000D+00
    2.000000000000D+00 0.000000000000D+00-1.117587089539D-08 4.500000000000D+01
    4.392780000000D+05 4.000000000000D+00
19 22  2  4  4  0  0.0 1.143421977758D-04 5.002220859751D-12 0.000000000000D+00
    5.300000000000D+01 2.106250000000D+01 3.952664644348D-09 1.001603922058D+00
    9.853392839432D-07 8.945149369538D-03 1.171976327896D-05 5.153688854218D+03
    4.464000000000D+05-7.450580596924D-09-2.615403899053D+00-1.676380634308D-07
    9.789830626427D-01 1.657187500000D+02 2.004012599740D+00-7.759608933144D-09
   -1.425059359442D-10 1.000000000000D+00 2.195000000000D+03 0.000000000000D+00
    2.000000000000D+00 0.000000000000D+00-1.583248376846D-08 5.300000000000D+01
    4.395480000000D+05 4.000000000000D+00
